NORAD_CAT_ID,OBJECT_NAME,OBJECT_TYPE,EPOCH,MEAN_MOTION,ECCENTRICITY,INCLINATION,RA_OF_ASC_NODE,ARG_OF_PERICENTER,MEAN_ANOMALY,BSTAR,MEAN_MOTION_DOT,MEAN_MOTION_DDOT,TLE_LINE0,TLE_LINE1,TLE_LINE2,SEMIMAJOR_AXIS,PERIOD,APOGEE,PERIGEE,DECAYED
55643.0,STARLINK-5483,PAYLOAD,2024-08-15 14:29:56,14.98316182,0.0003365,69.9992,184.5458,267.7126,92.3648,0.00042856,5.022e-05,0.0,0 STARLINK-5483,1 55643U 23021R   24228.60412310  .00005022  00000-0  42856-3 0  9993,2 55643  69.9992 184.5458 0003365 267.7126  92.3648 14.98316182 83244,6950.236,96.108,574.439,569.762,0.0
55643.0,STARLINK-5483,PAYLOAD,2024-08-15 22:30:36,14.9833335,0.0003011,69.9991,183.7006,274.9634,85.1181,0.00021532,2.477e-05,0.0,0 STARLINK-5483,1 55643U 23021R   24228.93792320  .00002477  00000-0  21532-3 0  9990,2 55643  69.9991 183.7006 0003011 274.9634  85.1181 14.98333350 83298,6950.183,96.107,574.14,569.955,0.0
55643.0,STARLINK-5483,PAYLOAD,2024-08-16 04:55:08,14.98338366,0.0003543,70.0,183.031,282.6757,77.4006,0.00030846,3.59e-05,0.0,0 STARLINK-5483,1 55643U 23021R   24229.20495719  .00003590  00000-0  30846-3 0  9998,2 55643  70.0000 183.0310 0003543 282.6757  77.4006 14.98338366 83039,6950.167,96.106,574.494,569.57,0.0
55643.0,STARLINK-5483,PAYLOAD,2024-08-16 06:31:16,14.98339084,0.0003479,70.0001,182.8627,281.6833,78.3936,0.00032053,3.734e-05,0.0,0 STARLINK-5483,1 55643U 23021R   24229.27171613  .00003734  00000-0  32053-3 0  9991,2 55643  70.0001 182.8627 0003479 281.6833  78.3936 14.98339084 83344,6950.165,96.106,574.448,569.612,0.0
55643.0,STARLINK-5483,PAYLOAD,2024-08-16 20:56:28,14.98347848,0.0003004,69.9996,181.3484,270.3296,89.7519,0.00022202,2.558e-05,0.0,0 STARLINK-5483,1 55643U 23021R   24229.87254657  .00002558  00000-0  22202-3 0  9995,2 55643  69.9996 181.3484 0003004 270.3296  89.7519 14.98347848 83138,6950.138,96.106,574.091,569.915,0.0
55643.0,STARLINK-5483,PAYLOAD,2024-08-17 04:57:07,14.98346187,0.00028,70.0,180.5068,268.0392,92.0447,0.00036474,4.263e-05,0.0,0 STARLINK-5483,1 55643U 23021R   24230.20634028  .00004263  00000-0  36474-3 0  9999,2 55643  70.0000 180.5068 0002800 268.0392  92.0447 14.98346187 83480,6950.143,96.106,573.954,570.062,0.0
55643.0,STARLINK-5483,PAYLOAD,2024-08-17 20:58:28,14.98347983,0.0001999,70.0037,178.826,257.1243,102.9693,-2.52e-05,-3.94e-06,0.0,0 STARLINK-5483,1 55643U 23021R   24230.87394348 -.00000394  00000-0 -25200-4 0  9999,2 55643  70.0037 178.8260 0001999 257.1243 102.9693 14.98347983 83283,6950.137,96.106,573.392,570.613,0.0
55643.0,STARLINK-5483,PAYLOAD,2024-08-18 04:59:09,14.98337335,0.0002431,70.0018,177.9846,257.982,102.1067,-7.8615e-05,-1.031e-05,0.0,0 STARLINK-5483,1 55643U 23021R   24231.20774753 -.00001031  00000-0 -78615-4 0  9996,2 55643  70.0018 177.9846 0002431 257.9820 102.1067 14.98337335 83336,6950.17,96.107,573.725,570.346,0.0
55643.0,STARLINK-5483,PAYLOAD,2024-08-18 22:36:37,14.98342707,0.0002907,70.0001,176.1318,267.0166,93.066,-0.00016777,-2.095e-05,0.0,0 STARLINK-5483,1 55643U 23021R   24231.94209969 -.00002095  00000-0 -16777-3 0  9990,2 55643  70.0001 176.1318 0002907 267.0166  93.0660 14.98342707 83747,6950.154,96.106,574.039,569.998,0.0
55643.0,STARLINK-5483,PAYLOAD,2024-08-19 13:01:49,14.98340791,0.0002818,70.0004,174.6159,268.3859,91.6977,-0.00020704,-2.563e-05,0.0,0 STARLINK-5483,1 55643U 23021R   24232.54293721 -.00002563  00000-0 -20704-3 0  9991,2 55643  70.0004 174.6159 0002818 268.3859  91.6977 14.98340791 83533,6950.16,96.106,573.983,570.066,0.0
55643.0,STARLINK-5483,PAYLOAD,2024-08-19 21:02:29,14.9842859,0.0003361,70.0005,173.7744,264.5539,95.5236,-0.0016906,-0.00020259,0.0,0 STARLINK-5483,1 55643U 23021R   24232.87673266 -.00020259  00000-0 -16906-2 0  9993,2 55643  70.0005 173.7744 0003361 264.5539  95.5236 14.98428590 83581,6949.888,96.101,574.089,569.417,0.0
55643.0,STARLINK-5483,PAYLOAD,2024-08-20 05:03:08,14.98441283,0.0003313,70.0005,172.9328,261.0263,99.0521,-0.001876,-0.00022471,0.0,0 STARLINK-5483,1 55643U 23021R   24233.21051146 -.00022471  00000-0 -18760-2 0  9997,2 55643  70.0005 172.9328 0003313 261.0263  99.0521 14.98441283 83639,6949.849,96.1,574.016,569.411,0.0
55643.0,STARLINK-5483,PAYLOAD,2024-08-21 05:05:11,14.98333951,0.0002719,70.0004,170.4084,264.7099,95.375,8.8966e-05,9.69e-06,0.0,0 STARLINK-5483,1 55643U 23021R   24234.21193353  .00000969  00000-0  88966-4 0  9998,2 55643  70.0004 170.4084 0002719 264.7099  95.3750 14.98333951 83787,6950.181,96.107,573.935,570.156,0.0
55643.0,STARLINK-5483,PAYLOAD,2024-08-21 06:41:19,14.98333952,0.0002715,70.0005,170.24,264.557,95.5279,9.0988e-05,9.93e-06,0.0,0 STARLINK-5483,1 55643U 23021R   24234.27869334  .00000993  00000-0  90988-4 0  9997,2 55643  70.0005 170.2400 0002715 264.5570  95.5279 14.98333952 84090,6950.181,96.107,573.933,570.159,0.0
55643.0,STARLINK-5483,PAYLOAD,2024-08-21 21:06:32,14.98323918,0.0002582,70.0004,168.725,262.8712,97.2154,-1.7374e-05,-3e-06,0.0,0 STARLINK-5483,1 55643U 23021R   24234.87954293 -.00000300  00000-0 -17374-4 0  9994,2 55643  70.0004 168.7250 0002582 262.8712  97.2154 14.98323918 83883,6950.212,96.107,573.871,570.282,0.0
